NORAD_CAT_ID,OBJECT_NAME,OBJECT_TYPE,EPOCH,MEAN_MOTION,ECCENTRICITY,INCLINATION,RA_OF_ASC_NODE,ARG_OF_PERICENTER,MEAN_ANOMALY,BSTAR,MEAN_MOTION_DOT,MEAN_MOTION_DDOT,TLE_LINE0,TLE_LINE1,TLE_LINE2,SEMIMAJOR_AXIS,PERIOD,APOGEE,PERIGEE,DECAYED
51970.0,STARLINK-3677,PAYLOAD,2023-11-28 18:34:39,15.06395209,0.0001422,53.0545,165.517,87.2172,272.8979,6.558e-05,6.95e-06,0.0,0 STARLINK-3677,1 51970U 22025Q   23332.77406307  .00000695  00000-0  65580-4 0  9998,2 51970  53.0545 165.5170 0001422  87.2172 272.8979 15.06395209 96624,6925.363,95.592,548.213,546.243,0.0
51970.0,STARLINK-3677,PAYLOAD,2023-11-29 12:05:35,15.06395614,0.0001327,53.055,162.2405,79.0344,281.0794,8.3061e-05,9.56e-06,0.0,0 STARLINK-3677,1 51970U 22025Q   23333.50388016  .00000956  00000-0  83061-4 0  9990,2 51970  53.0550 162.2405 0001327  79.0344 281.0794 15.06395614 95647,6925.362,95.592,548.146,546.308,0.0
51970.0,STARLINK-3677,PAYLOAD,2023-11-29 20:03:16,15.06398954,0.0001333,53.0546,160.7525,77.9437,282.1702,0.00010989,1.356e-05,0.0,0 STARLINK-3677,1 51970U 22025Q   23333.83561197  .00001356  00000-0  10989-3 0  9992,2 51970  53.0546 160.7525 0001333  77.9437 282.1702 15.06398954 96782,6925.352,95.592,548.14,546.294,0.0
51970.0,STARLINK-3677,PAYLOAD,2023-11-30 19:56:22,15.06398403,0.0001351,53.0544,156.2854,83.5924,276.5219,7.3554e-05,8.14e-06,0.0,0 STARLINK-3677,1 51970U 22025Q   23334.83081747  .00000814  00000-0  73554-4 0  9997,2 51970  53.0544 156.2854 0001351  83.5924 276.5219 15.06398403 96935,6925.353,95.592,548.154,546.283,0.0
51970.0,STARLINK-3677,PAYLOAD,2023-12-01 18:13:55,15.06404234,0.0001382,53.0535,152.1146,68.9418,291.1719,9.0028e-05,1.06e-05,0.0,0 STARLINK-3677,1 51970U 22025Q   23335.75966881  .00001060  00000-0  90028-4 0  9999,2 51970  53.0535 152.1146 0001382  68.9418 291.1719 15.06404234 95985,6925.336,95.592,548.158,546.243,0.0
51970.0,STARLINK-3677,PAYLOAD,2023-12-02 18:07:00,15.06404026,0.000135,53.0534,147.6465,79.3244,280.7897,0.00012985,1.653e-05,0.0,0 STARLINK-3677,1 51970U 22025Q   23336.75486661  .00001653  00000-0  12985-3 0  9996,2 51970  53.0534 147.6465 0001350  79.3244 280.7897 15.06404026 97224,6925.336,95.592,548.136,546.266,0.0
51970.0,STARLINK-3677,PAYLOAD,2023-12-03 11:37:57,15.06393735,0.0001496,53.0531,144.3703,62.7631,297.3511,-3.6751e-05,-8.29e-06,0.0,0 STARLINK-3677,1 51970U 22025Q   23337.48469535 -.00000829  00000-0 -36751-4 0  9992,2 51970  53.0531 144.3703 0001496  62.7631 297.3511 15.06393735 97330,6925.368,95.593,548.269,546.197,0.0
51970.0,STARLINK-3677,PAYLOAD,2023-12-04 11:31:03,15.0638853,0.0001213,53.0551,139.8979,103.6634,256.4491,-4.8095e-05,-9.97e-06,0.0,0 STARLINK-3677,1 51970U 22025Q   23338.47990288 -.00000997  00000-0 -48095-4 0  9996,2 51970  53.0551 139.8979 0001213 103.6634 256.4491 15.06388530 96396,6925.384,95.593,548.089,546.409,0.0
51970.0,STARLINK-3677,PAYLOAD,2023-12-05 20:57:22,15.06396798,0.000118,53.0557,133.6457,105.6969,254.415,0.00018483,2.472e-05,0.0,0 STARLINK-3677,1 51970U 22025Q   23339.87317920  .00002472  00000-0  18483-3 0  9992,2 51970  53.0557 133.6457 0001180 105.6969 254.4150 15.06396798 96600,6925.358,95.592,548.041,546.406,0.0
51970.0,STARLINK-3677,PAYLOAD,2023-12-06 19:14:55,15.06398096,0.0001141,53.055,129.4772,100.338,259.7737,4.1072e-05,3.3e-06,0.0,0 STARLINK-3677,1 51970U 22025Q   23340.80203590  .00000330  00000-0  41072-4 0  9996,2 51970  53.0550 129.4772 0001141 100.3380 259.7737 15.06398096 96749,6925.354,95.592,548.01,546.429,0.0
51970.0,STARLINK-3677,PAYLOAD,2023-12-07 09:34:47,15.0639343,0.000109,53.0542,126.7955,102.2069,257.9042,-7.3362e-06,-3.91e-06,0.0,0 STARLINK-3677,1 51970U 22025Q   23341.39916215 -.00000391  00000-0 -73362-5 0  9993,2 51970  53.0542 126.7955 0001090 102.2069 257.9042 15.06393430 97928,6925.369,95.593,547.989,546.479,0.0
51970.0,STARLINK-3677,PAYLOAD,2023-12-08 09:27:52,15.06399139,0.0001217,53.0552,122.3313,84.5057,275.6071,3.4466e-05,2.32e-06,0.0,0 STARLINK-3677,1 51970U 22025Q   23342.39436097  .00000232  00000-0  34466-4 0  9992,2 51970  53.0552 122.3313 0001217  84.5057 275.6071 15.06399139 98077,6925.351,95.592,548.059,546.373,0.0
51970.0,STARLINK-3677,PAYLOAD,2023-12-08 11:03:25,15.06397493,0.0001254,53.0544,122.0323,90.6224,269.4908,7.1078e-05,7.77e-06,0.0,0 STARLINK-3677,1 51970U 22025Q   23342.46070686  .00000777  00000-0  71078-4 0  9992,2 51970  53.0544 122.0323 0001254  90.6224 269.4908 15.06397493 96991,6925.356,95.592,548.09,546.353,0.0
51970.0,STARLINK-3677,PAYLOAD,2023-12-09 12:32:03,15.06396836,0.0001265,53.055,117.2671,82.3316,277.7816,2.3048e-05,6.2e-07,0.0,0 STARLINK-3677,1 51970U 22025Q   23343.52225855  .00000062  00000-0  23048-4 0  9991,2 51970  53.0550 117.2671 0001265  82.3316 277.7816 15.06396836 97151,6925.358,95.592,548.099,546.347,0.0
51970.0,STARLINK-3677,PAYLOAD,2023-12-10 14:00:41,15.06396722,0.0001277,53.055,112.5018,85.5601,274.5534,5.6846e-06,-1.97e-06,0.0,0 STARLINK-3677,1 51970U 22025Q   23344.58380921 -.00000197  00000-0  56846-5 0  9997,2 51970  53.0550 112.5018 0001277  85.5601 274.5534 15.06396722 97313,6925.359,95.592,548.108,546.339,0.0
51970.0,STARLINK-3677,PAYLOAD,2023-12-10 15:36:13,15.06396872,0.0001272,53.0552,112.2043,81.0108,279.1025,6.284e-06,-1.88e-06,0.0,0 STARLINK-3677,1 51970U 22025Q   23344.65015618 -.00000188  00000-0  62840-5 0  9994,2 51970  53.0552 112.2043 0001272  81.0108 279.1025 15.06396872 98412,6925.358,95.592,548.104,546.342,0.0
51970.0,STARLINK-3677,PAYLOAD,2023-12-11 13:53:46,15.06397221,0.0001233,53.0555,108.0341,87.5866,272.5264,4.6251e-05,4.08e-06,0.0,0 STARLINK-3677,1 51970U 22025Q   23345.57901060  .00000408  00000-0  46251-4 0  9992,2 51970  53.0555 108.0341 0001233  87.5866 272.5264 15.06397221 97463,6925.357,95.592,548.076,546.368,0.0
51970.0,STARLINK-3677,PAYLOAD,2023-12-11 15:29:18,15.06398621,0.0001244,53.0556,107.7363,86.6557,273.4574,5.7188e-05,5.7e-06,0.0,0 STARLINK-3677,1 51970U 22025Q   23345.64535630  .00000570  00000-0  57188-4 0  9997,2 51970  53.0556 107.7363 0001244  86.6557 273.4574 15.06398621 97473,6925.353,95.592,548.079,546.356,0.0
51970.0,STARLINK-3677,PAYLOAD,2023-12-12 12:11:20,15.06390754,0.0001315,53.0563,103.8652,91.8555,268.2585,-1.1667e-05,-4.55e-06,0.0,0 STARLINK-3677,1 51970U 22025Q   23346.50787467 -.00000455  00000-0 -11667-4 0  9996,2 51970  53.0563 103.8652 0001315  91.8555 268.2585 15.06390754 98692,6925.377,95.593,548.153,546.331,0.0
51970.0,STARLINK-3677,PAYLOAD,2023-12-12 13:46:52,15.06388476,0.0001291,53.0569,103.568,102.9076,257.2057,-3.9905e-05,-8.76e-06,0.0,0 STARLINK-3677,1 51970U 22025Q   23346.57422350 -.00000876  00000-0 -39905-4 0  9992,2 51970  53.0569 103.5680 0001291 102.9076 257.2057 15.06388476 97612,6925.384,95.593,548.143,546.355,0.0
51970.0,STARLINK-3677,PAYLOAD,2023-12-12 18:33:31,15.06376775,0.000121,53.0554,102.6747,85.2249,274.8878,-0.00013342,-2.267e-05,0.0,0 STARLINK-3677,1 51970U 22025Q   23346.77327645 -.00002267  00000-0 -13342-3 0  9997,2 51970  53.0554 102.6747 0001210  85.2249 274.8878 15.06376775 98735,6925.42,95.594,548.123,546.447,0.0
51970.0,STARLINK-3677,PAYLOAD,2023-12-12 20:09:03,15.06376337,0.000122,53.0554,102.3763,82.1659,277.9469,-0.00013685,-2.318e-05,0.0,0 STARLINK-3677,1 51970U 22025Q   23346.83962457 -.00002318  00000-0 -13685-3 0  9997,2 51970  53.0554 102.3763 0001220  82.1659 277.9469 15.06376337 97656,6925.421,95.594,548.131,546.441,0.0
51970.0,STARLINK-3677,PAYLOAD,2023-12-13 12:04:27,15.06385697,0.0001281,53.0552,99.3985,72.9788,287.1341,-0.00011779,-2.035e-05,0.0,0 STARLINK-3677,1 51970U 22025Q   23347.50309350 -.00002035  00000-0 -11779-3 0  9997,2 51970  53.0552  99.3985 0001281  72.9788 287.1341 15.06385697 98845,6925.392,95.593,548.145,546.37,0.0
51970.0,STARLINK-3677,PAYLOAD,2023-12-13 13:39:59,15.06387477,0.0001226,53.0551,99.1011,79.5706,280.5421,-0.00010882,-1.901e-05,0.0,0 STARLINK-3677,1 51970U 22025Q   23347.56943999 -.00001901  00000-0 -10882-3 0  9991,2 51970  53.0551  99.1011 0001226  79.5706 280.5421 15.06387477 97768,6925.387,95.593,548.101,546.403,0.0
51970.0,STARLINK-3677,PAYLOAD,2023-12-13 15:15:31,15.06389257,0.0001369,53.0553,98.8028,69.7222,290.3914,-8.3375e-05,-1.523e-05,0.0,0 STARLINK-3677,1 51970U 22025Q   23347.63578512 -.00001523  00000-0 -83375-4 0  9992,2 51970  53.0553  98.8028 0001369  69.7222 290.3914 15.06389257 97771,6925.381,95.593,548.195,546.298,0.0
51970.0,STARLINK-3677,PAYLOAD,2023-12-14 11:57:31,15.06393093,0.000147,53.0555,94.9307,67.3002,292.8142,0.00024532,3.374e-05,0.0,0 STARLINK-3677,1 51970U 22025Q   23348.49828336  .00003374  00000-0  24532-3 0  9992,2 51970  53.0555  94.9307 0001470  67.3002 292.8142 15.06393093 98991,6925.37,95.593,548.253,546.217,0.0
51970.0,STARLINK-3677,PAYLOAD,2023-12-14 13:33:03,15.06395837,0.0001619,53.0554,94.6329,62.63,297.4854,0.00027159,3.766e-05,0.0,0 STARLINK-3677,1 51970U 22025Q   23348.56462869  .00003766  00000-0  27159-3 0  9998,2 51970  53.0554  94.6329 0001619  62.6300 297.4854 15.06395837 97915,6925.361,95.592,548.348,546.105,0.0
51970.0,STARLINK-3677,PAYLOAD,2023-12-15 13:26:09,15.06403252,0.0001425,53.0547,90.1733,77.65,282.4649,0.00013375,1.711e-05,0.0,0 STARLINK-3677,1 51970U 22025Q   23349.55983118  .00001711  00000-0  13375-3 0  9996,2 51970  53.0547  90.1733 0001425  77.6500 282.4649 15.06403252 98064,6925.339,95.592,548.19,546.217,0.0
51970.0,STARLINK-3677,PAYLOAD,2023-12-16 13:19:14,15.06408677,0.0001591,53.0572,85.6984,98.7357,261.3812,-3.6745e-05,-8.29e-06,0.0,0 STARLINK-3677,1 51970U 22025Q   23350.55502930 -.00000829  00000-0 -36745-4 0  9995,2 51970  53.0572  85.6984 0001591  98.7357 261.3812 15.06408677 98218,6925.322,95.592,548.289,546.085,0.0
51970.0,STARLINK-3677,PAYLOAD,2023-12-17 11:36:48,15.06394988,0.0001632,53.0575,81.5281,105.0476,255.0694,-6.0692e-05,-1.185e-05,0.0,0 STARLINK-3677,1 51970U 22025Q   23351.48389274 -.00001185  00000-0 -60692-4 0  9996,2 51970  53.0575  81.5281 0001632 105.0476 255.0694 15.06394988 99449,6925.364,95.592,548.359,546.099,0.0
